STARLINK-35228          
1 65517U 25198AB  26183.46398226  .00024213  00000+0  72508-3 0  9995
2 65517  53.1583  95.6728 0001560 101.4013 258.7165 15.34415348 46226
STARLINK-35232          
1 65518U 25198AC  26183.05642218  .00029241  00000+0  87245-3 0  9994
2 65518  53.1594  98.1055 0001208  89.0256 271.0885 15.34426986 46158
STARLINK-35164          
1 65519U 25198AD  26183.05011937  .00064637  00000+0  19080-2 0  9992
2 65519  53.1573  98.0624 0000538  73.2458 286.8604 15.34396109 46157
STARLINK-35112          
1 65520U 25200A   26183.43919651  .00387575  00000+0  24888-1 0  9990
2 65520  97.2896 251.2959 0002739 311.0581  49.0410 15.06458786 46394
STARLINK-35187          
1 65521U 25200B   26183.60281890  .00097133  00000+0  66189-2 0  9996
2 65521  97.2869 251.5389 0000139 179.1917 180.9311 15.05795571 46427
STARLINK-35188          
1 65522U 25200C   26183.18748091  .00003625  00000+0  25493-3 0  9998
2 65522  97.2819 251.1848 0001351  95.4934 264.6448 15.05663353 46361
STARLINK-35078          
1 65523U 25200D   26183.15701411  .00005992  00000+0  41876-3 0  9993
2 65523  97.2885 251.0718 0001067 124.7640 235.3688 15.05660447 46355
STARLINK-35055          
1 65524U 25200E   26183.61391447  .00003947  00000+0  27725-3 0  9994
2 65524  97.2867 251.5211 0000790 134.2560 225.8732 15.05657169 46427
STARLINK-35057          
1 65525U 25200F   26183.44775009  .00021176  00000+0  14652-2 0  9994
2 65525  97.2880 251.2888 0001148 124.8691 235.2644 15.05701623 46396
STARLINK-34674          
1 65526U 25200G   26183.46162067  .00004912  00000+0  34403-3 0  9997
2 65526  97.2842 251.4249 0001165  91.7998 268.3364 15.05658356 46412
STARLINK-35067          
1 65527U 25200H   26183.16808913  .00003685  00000+0  25908-3 0  9998
2 65527  97.2839 251.0556 0001603  87.2922 272.8489 15.05665369 46353
STARLINK-35063          
1 65528U 25200J   26183.45054612  .00001295  00000+0  93634-4 0  9997
2 65528  97.2812 251.4389 0001857  97.7501 262.3937 15.05663965 46401
STARLINK-35077          
1 65529U 25200K   26183.36192695  .00000184  00000+0  16638-4 0  9997
2 65529  97.2835 251.2517 0001212  99.7255 260.4110 15.05651390 46389
STARLINK-35152          
1 65530U 25200L   26183.47546315  .00004003  00000+0  28109-3 0  9992
2 65530  97.2840 251.4053 0001878 144.1969 215.9385 15.05658879 46400
STARLINK-35064          
1 65531U 25200M   26183.61945364  .00003475  00000+0  24456-3 0  9999
2 65531  97.2869 251.5147 0000829 113.6559 246.4756 15.05657498 46427
STARLINK-35170          
1 65532U 25200N   26183.19301380  .00003863  00000+0  27136-3 0  9996
2 65532  97.2850 251.1788 0002212 144.0976 216.0401 15.05664227 46365
STARLINK-35172          
1 65533U 25200P   26183.17085996  .00002812  00000+0  19870-3 0  9996
2 65533  97.2880 251.0544 0001527 114.1647 245.9740 15.05652512 46359
STARLINK-35125          
1 65534U 25200Q   26183.17916140  .00005323  00000+0  37235-3 0  9996
2 65534  97.2851 251.0454 0001228 115.1259 245.0097 15.05667795 46351
STARLINK-35133          
1 65535U 25200R   26183.46438672  .00003522  00000+0  24787-3 0  9995
2 65535  97.2837 251.4214 0001284 189.2290 170.8914 15.05655702 46407
STARLINK-35044          
1 65536U 25200S   26183.61668370  .00008056  00000+0  56102-3 0  9996
2 65536  97.2839 251.5150 0000691  93.1037 267.0270 15.05688886 46428
STARLINK-35136          
1 65537U 25200T   26183.16532670  .00008498  00000+0  59165-3 0  9992
2 65537  97.2838 251.0594 0002364 144.7841 215.3543 15.05684543 46267
STARLINK-35144          
1 65538U 25200U   26183.15978513  .00007749  00000+0  54020-3 0  9995
2 65538  97.2861 251.0712 0001814 333.2596  26.8538 15.05664953 46359
STARLINK-35110          
1 65539U 25200V   26183.45608448  .00002330  00000+0  16526-3 0  9996
2 65539  97.2855 251.4337 0002181 127.9392 232.2033 15.05659644 46400
STARLINK-35052          
1 65540U 25200W   26183.47269330  .00003680  00000+0  25871-3 0  9995
2 65540  97.2848 251.4093 0000694  84.4448 275.6859 15.05662994 46329
STARLINK-35087          
1 65541U 25200X   26183.61115438  .00001130  00000+0  82203-4 0  9992
2 65541  97.2907 251.5285 0001746 104.5963 255.5458 15.05650390 46425
STARLINK-35100          
1 65542U 25200Y   26183.44224115  .00008233  00000+0  57355-3 0  9997
2 65542  97.2836 251.2981 0001413 110.3630 249.7750 15.05669784 46397
STARLINK-35105          
1 65543U 25200Z   26183.46715753  .00003149  00000+0  22204-3 0  9999
2 65543  97.2873 251.4177 0000698  89.9536 270.1771 15.05658585 46408
YAOGAN-40 03A           
1 65544U 25199A   26183.09052854  .00000285  00000+0  10996-3 0  9995
2 65544  85.9874  34.2953 0014700  29.7570 330.4454 14.26494709 42549
YAOGAN-40 03B           
1 65545U 25199B   26183.55446905  .00000119  00000+0  54147-4 0  9994
2 65545  85.9895  37.1937 0002487  85.4114 274.7353 14.12452292 42206
YAOGAN-40 03C           
1 65546U 25199C   26183.55463044  .00000158  00000+0  75309-4 0  9994
2 65546  85.9894  37.1913 0002460  84.6805 275.4659 14.12453092 42238
