OBJECT_NAME,OBJECT_ID,EPOCH,MEAN_MOTION,ECCENTRICITY,INCLINATION,RA_OF_ASC_NODE,ARG_OF_PERICENTER,MEAN_ANOMALY,EPHEMERIS_TYPE,CLASSIFICATION_TYPE,NORAD_CAT_ID,ELEMENT_SET_NO,REV_AT_EPOCH,BSTAR,MEAN_MOTION_DOT,MEAN_MOTION_DDOT
STARLINK-35228,2025-198AB,2026-07-02T11:08:08.067264,15.34415348,.00015601,53.1583,95.6728,101.4013,258.7165,0,U,65517,999,4622,.72508024E-3,.24213E-3,0
STARLINK-35232,2025-198AC,2026-07-02T01:21:14.876352,15.34426986,.00012086,53.1594,98.1055,89.0256,271.0885,0,U,65518,999,4615,.87245033E-3,.29241E-3,0
STARLINK-35164,2025-198AD,2026-07-02T01:12:10.313568,15.34396109,.00005388,53.1573,98.0624,73.2458,286.8604,0,U,65519,999,4615,.1907998E-2,.64637E-3,0
STARLINK-35112,2025-200A,2026-07-02T10:32:26.578464,15.06458786,.00027397,97.2896,251.2959,311.0581,49.0410,0,U,65520,999,4639,.24888457E-1,.387575E-2,0
STARLINK-35187,2025-200B,2026-07-02T14:28:03.552960,15.05795571,.0000139,97.2869,251.5389,179.1917,180.9311,0,U,65521,999,4642,.66188795E-2,.97133E-3,0
STARLINK-35188,2025-200C,2026-07-02T04:29:58.350624,15.05663353,.00013519,97.2819,251.1848,95.4934,264.6448,0,U,65522,999,4636,.25493475E-3,.3625E-4,0
STARLINK-35078,2025-200D,2026-07-02T03:46:06.019104,15.05660447,.00010677,97.2885,251.0718,124.7640,235.3688,0,U,65523,999,4635,.41876338E-3,.5992E-4,0
STARLINK-35055,2025-200E,2026-07-02T14:44:02.210208,15.05657169,.00007905,97.2867,251.5211,134.2560,225.8732,0,U,65524,999,4642,.27725461E-3,.3947E-4,0
STARLINK-35057,2025-200F,2026-07-02T10:44:45.607776,15.05701623,.0001148,97.2880,251.2888,124.8691,235.2644,0,U,65525,999,4639,.14652261E-2,.21176E-3,0
STARLINK-34674,2025-200G,2026-07-02T11:04:44.025888,15.05658356,.00011651,97.2842,251.4249,91.7998,268.3364,0,U,65526,999,4641,.34403377E-3,.4912E-4,0
STARLINK-35067,2025-200H,2026-07-02T04:02:02.900832,15.05665369,.00016039,97.2839,251.0556,87.2922,272.8489,0,U,65527,999,4635,.25907644E-3,.3685E-4,0
STARLINK-35063,2025-200J,2026-07-02T10:48:47.184768,15.05663965,.0001857,97.2812,251.4389,97.7501,262.3937,0,U,65528,999,4640,.93634124E-4,.1295E-4,0
STARLINK-35077,2025-200K,2026-07-02T08:41:10.488480,15.05651390,.00012123,97.2835,251.2517,99.7255,260.4110,0,U,65529,999,4638,.16637982E-4,.184E-5,0
STARLINK-35152,2025-200L,2026-07-02T11:24:40.016160,15.05658879,.00018782,97.2840,251.4053,144.1969,215.9385,0,U,65530,999,4640,.28108838E-3,.4003E-4,0
STARLINK-35064,2025-200M,2026-07-02T14:52:00.794496,15.05657498,.00008296,97.2869,251.5147,113.6559,246.4756,0,U,65531,999,4642,.2445616E-3,.3475E-4,0
STARLINK-35170,2025-200N,2026-07-02T04:37:56.392320,15.05664227,.00022122,97.2850,251.1788,144.0976,216.0401,0,U,65532,999,4636,.27136001E-3,.3863E-4,0
STARLINK-35172,2025-200P,2026-07-02T04:06:02.300544,15.05652512,.00015278,97.2880,251.0544,114.1647,245.9740,0,U,65533,999,4635,.19869855E-3,.2812E-4,0
STARLINK-35125,2025-200Q,2026-07-02T04:17:59.544960,15.05667795,.00012288,97.2851,251.0454,115.1259,245.0097,0,U,65534,999,4635,.37235248E-3,.5323E-4,0
STARLINK-35133,2025-200R,2026-07-02T11:08:43.012608,15.05655702,.00012844,97.2837,251.4214,189.2290,170.8914,0,U,65535,999,4640,.24786526E-3,.3522E-4,0
STARLINK-35044,2025-200S,2026-07-02T14:48:01.471680,15.05688886,.00006916,97.2839,251.5150,93.1037,267.0270,0,U,65536,999,4642,.56102446E-3,.8056E-4,0
STARLINK-35136,2025-200T,2026-07-02T03:58:04.226880,15.05684543,.00023642,97.2838,251.0594,144.7841,215.3543,0,U,65537,999,4626,.59164683E-3,.8498E-4,0
STARLINK-35144,2025-200U,2026-07-02T03:50:05.435232,15.05664953,.00018149,97.2861,251.0712,333.2596,26.8538,0,U,65538,999,4635,.54020152E-3,.7749E-4,0
STARLINK-35110,2025-200V,2026-07-02T10:56:45.699072,15.05659644,.00021814,97.2855,251.4337,127.9392,232.2033,0,U,65539,999,4640,.16526007E-3,.233E-4,0
STARLINK-35052,2025-200W,2026-07-02T11:20:40.701120,15.05662994,.0000694,97.2848,251.4093,84.4448,275.6859,0,U,65540,999,4632,.2587147E-3,.368E-4,0
STARLINK-35087,2025-200X,2026-07-02T14:40:03.738432,15.05650390,.00017467,97.2907,251.5285,104.5963,255.5458,0,U,65541,999,4642,.82202832E-4,.113E-4,0
STARLINK-35100,2025-200Y,2026-07-02T10:36:49.635360,15.05669784,.00014131,97.2836,251.2981,110.3630,249.7750,0,U,65542,999,4639,.57355248E-3,.8233E-4,0
STARLINK-35105,2025-200Z,2026-07-02T11:12:42.410592,15.05658585,.00006987,97.2873,251.4177,89.9536,270.1771,0,U,65543,999,4640,.22203714E-3,.3149E-4,0
YAOGAN-40 03A,2025-199A,2026-07-02T02:10:21.665856,14.26494709,.00147003,85.9874,34.2953,29.7570,330.4454,0,U,65544,999,4254,.10996025E-3,.285E-5,0
YAOGAN-40 03B,2025-199B,2026-07-02T13:18:26.125920,14.12452292,.00024872,85.9895,37.1937,85.4114,274.7353,0,U,65545,999,4220,.54147239E-4,.119E-5,0
YAOGAN-40 03C,2025-199C,2026-07-02T13:18:40.070016,14.12453092,.00024605,85.9894,37.1913,84.6805,275.4659,0,U,65546,999,4223,.75309006E-4,.158E-5,0
